0 FENGYUN 1C DEB
1 29771U 99025BM  13281.19179960  .00004173  00000-0  26344-2 0  2100
2 29771 099.6076 004.7227 0116112 051.0587 310.0857 14.01452178342281
0 FENGYUN 1C DEB
1 29771U 99025BM  13283.19076719  .00006068  00000-0  38175-2 0  2111
2 29771 099.6076 006.8265 0115403 045.3070 315.7424 14.01478485342563
0 FENGYUN 1C DEB
1 29771U 99025BM  13286.68888249  .00005324  00000-0  33555-2 0  2130
2 29771 099.6087 010.5067 0114296 035.1329 325.7304 14.01510392343057
0 FENGYUN 1C DEB
1 29771U 99025BM  13288.18804846  .00008050  00000-0  50554-2 0  2146
2 29771 099.6086 012.0852 0114014 030.7966 329.9822 14.01528214343267
0 FENGYUN 1C DEB
1 29771U 99025BM  13289.75857854  .00007360  00000-0  46251-2 0  2150
2 29771 099.6087 013.7386 0113698 026.1869 334.4984 14.01547769343486
0 FENGYUN 1C DEB
1 29771U 99025BM  13291.18631542  .00006674  00000-0  41968-2 0  2162
2 29771 099.6082 015.2418 0113513 022.0527 338.5465 14.01564283343687
0 FENGYUN 1C DEB
1 29771U 99025BM  13293.18511715  .00006341  00000-0  39885-2 0  2170
2 29771 099.6075 017.3446 0113290 016.2263 344.2481 14.01585899343966
0 FENGYUN 1C DEB
1 29771U 99025BM  13294.68419701  .00007508  00000-0  47149-2 0  2187
2 29771 099.6070 018.9229 0113174 011.8005 348.5771 14.01603959344174
